{"type": "FeatureCollection", "features": [ {"type": "Feature", "properties": {"norad_id": 66569, "name": "STARLINK-35835", "group": "last-30-days", "lat": 30.62089608684399, "lon": 168.56005475353626, "alt_km": 411.04036017672206, "timestamp": "2025-12-11T08:58:25.854666+00:00", "meta": {"OBJECT_NAME": "STARLINK-35835", "OBJECT_ID": "2025-268N", "EPOCH": "2025-12-11T04:00:01.998720", "MEAN_MOTION": 15.50603063, "ECCENTRICITY": 0.0001543, "INCLINATION": 43.0004, "RA_OF_ASC_NODE": 130.3398, "ARG_OF_PERICENTER": 263.3001, "MEAN_ANOMALY": 66.9731, "EPHEMERIS_TYPE": 0, "CLASSIFICATION_TYPE": "U", "NORAD_CAT_ID": 66569, "ELEMENT_SET_NO": 999, "REV_AT_EPOCH": 441, "BSTAR": -0.0015086, "MEAN_MOTION_DOT": -0.00087935, "MEAN_MOTION_DDOT": 0}, "tle": {"line1": "1 66569U 25268N   25345.16668980 -.00087935  00000+0 -15086-2 0  9993", "line2": "2 66569  43.0004 130.3398 0001543 263.3001  66.9731 15.50603063  4410"}}, "geometry": {"type": "Point", "coordinates": [168.56005475353626, 30.62089608684399]}}, {"type": "Feature", "properties": {"norad_id": 66570, "name": "STARLINK-35834", "group": "last-30-days", "lat": 31.621403854176634, "lon": 170.47857454261128, "alt_km": 410.95696363764364, "timestamp": "2025-12-11T08:58:25.854677+00:00", "meta": {"OBJECT_NAME": "STARLINK-35834", "OBJECT_ID": "2025-268P", "EPOCH": "2025-12-11T04:00:01.998720", "MEAN_MOTION": 15.50612645, "ECCENTRICITY": 0.0001679, "INCLINATION": 43.0005, "RA_OF_ASC_NODE": 130.3347, "ARG_OF_PERICENTER": 264.9279, "MEAN_ANOMALY": 67.2656, "EPHEMERIS_TYPE": 0, "CLASSIFICATION_TYPE": "U", "NORAD_CAT_ID": 66570, "ELEMENT_SET_NO": 999, "REV_AT_EPOCH": 441, "BSTAR": -0.0019114, "MEAN_MOTION_DOT": -0.00111031, "MEAN_MOTION_DDOT": 0}, "tle": {"line1": "1 66570U 25268P   25345.16668980 -.00111031  00000+0 -19114-2 0  9996", "line2": "2 66570  43.0005 130.3347 0001679 264.9279  67.2656 15.50612645  4417"}}, "geometry": {"type": "Point", "coordinates": [170.47857454261128, 31.621403854176634]}}, {"type": "Feature", "properties": {"norad_id": 66571, "name": "STARLINK-35836", "group": "last-30-days", "lat": 32.58587182492725, "lon": 172.4256759972338, "alt_km": 410.725935442636, "timestamp": "2025-12-11T08:58:25.854691+00:00", "meta": {"OBJECT_NAME": "STARLINK-35836", "OBJECT_ID": "2025-268Q", "EPOCH": "2025-12-11T04:00:01.998720", "MEAN_MOTION": 15.50606087, "ECCENTRICITY": 0.0001491, "INCLINATION": 43.0004, "RA_OF_ASC_NODE": 130.3303, "ARG_OF_PERICENTER": 263.8376, "MEAN_ANOMALY": 70.2717, "EPHEMERIS_TYPE": 0, "CLASSIFICATION_TYPE": "U", "NORAD_CAT_ID": 66571, "ELEMENT_SET_NO": 999, "REV_AT_EPOCH": 441, "BSTAR": -0.0016093, "MEAN_MOTION_DOT": -0.00093719, "MEAN_MOTION_DDOT": 0}, "tle": {"line1": "1 66571U 25268Q   25345.16668980 -.00093719  00000+0 -16093-2 0  9992", "line2": "2 66571  43.0004 130.3303 0001491 263.8376  70.2717 15.50606087  4412"}}, "geometry": {"type": "Point", "coordinates": [172.4256759972338, 32.58587182492725]}}, {"type": "Feature", "properties": {"norad_id": 66572, "name": "STARLINK-35870", "group": "last-30-days", "lat": 33.519749383616734, "lon": 174.41523213439825, "alt_km": 410.53130441800386, "timestamp": "2025-12-11T08:58:25.854701+00:00", "meta": {"OBJECT_NAME": "STARLINK-35870", "OBJECT_ID": "2025-268R", "EPOCH": "2025-12-11T04:00:01.998720", "MEAN_MOTION": 15.50599074, "ECCENTRICITY": 0.0001408, "INCLINATION": 43.0004, "RA_OF_ASC_NODE": 130.3263, "ARG_OF_PERICENTER": 265.8219, "MEAN_ANOMALY": 70.2029, "EPHEMERIS_TYPE": 0, "CLASSIFICATION_TYPE": "U", "NORAD_CAT_ID": 66572, "ELEMENT_SET_NO": 999, "REV_AT_EPOCH": 441, "BSTAR": -0.0013726, "MEAN_MOTION_DOT": -0.00080103, "MEAN_MOTION_DDOT": 0}, "tle": {"line1": "1 66572U 25268R   25345.16668980 -.00080103  00000+0 -13726-2 0  9996", "line2": "2 66572  43.0004 130.3263 0001408 265.8219  70.2029 15.50599074  4417"}}, "geometry": {"type": "Point", "coordinates": [174.41523213439825, 33.519749383616734]}}, {"type": "Feature", "properties": {"norad_id": 66573, "name": "STARLINK-35650", "group": "last-30-days", "lat": 34.4274849185339, "lon": 176.4605686682968, "alt_km": 410.75492016595035, "timestamp": "2025-12-11T08:58:25.854711+00:00", "meta": {"OBJECT_NAME": "STARLINK-35650", "OBJECT_ID": "2025-268S", "EPOCH": "2025-12-11T04:00:01.998720", "MEAN_MOTION": 15.50604633, "ECCENTRICITY": 0.000216, "INCLINATION": 43.0006, "RA_OF_ASC_NODE": 130.3207, "ARG_OF_PERICENTER": 271.7583, "MEAN_ANOMALY": 66.1839, "EPHEMERIS_TYPE": 0, "CLASSIFICATION_TYPE": "U", "NORAD_CAT_ID": 66573, "ELEMENT_SET_NO": 999, "REV_AT_EPOCH": 441, "BSTAR": -0.0016088, "MEAN_MOTION_DOT": -0.00093691, "MEAN_MOTION_DDOT": 0}, "tle": {"line1": "1 66573U 25268S   25345.16668980 -.00093691  00000+0 -16088-2 0  9997", "line2": "2 66573  43.0006 130.3207 0002160 271.7583  66.1839 15.50604633  4415"}}, "geometry": {"type": "Point", "coordinates": [176.4605686682968, 34.4274849185339]}}, {"type": "Feature", "properties": {"norad_id": 66574, "name": "STARLINK-35812", "group": "last-30-days", "lat": 35.293742410384496, "lon": 178.5349605642648, "alt_km": 410.4767248616281, "timestamp": "2025-12-11T08:58:25.854722+00:00", "meta": {"OBJECT_NAME": "STARLINK-35812", "OBJECT_ID": "2025-268T", "EPOCH": "2025-12-11T04:00:01.998720", "MEAN_MOTION": 15.50602443, "ECCENTRICITY": 0.0001786, "INCLINATION": 43.0004, "RA_OF_ASC_NODE": 130.3152, "ARG_OF_PERICENTER": 268.2603, "MEAN_ANOMALY": 71.5982, "EPHEMERIS_TYPE": 0, "CLASSIFICATION_TYPE": "U", "NORAD_CAT_ID": 66574, "ELEMENT_SET_NO": 999, "REV_AT_EPOCH": 441, "BSTAR": -0.0014941, "MEAN_MOTION_DOT": -0.00087098, "MEAN_MOTION_DDOT": 0}, "tle": {"line1": "1 66574U 25268T   25345.16668980 -.00087098  00000+0 -14941-2 0  9998", "line2": "2 66574  43.0004 130.3152 0001786 268.2603  71.5982 15.50602443  4416"}}, "geometry": {"type": "Point", "coordinates": [178.5349605642648, 35.293742410384496]}}, {"type": "Feature", "properties": {"norad_id": 66575, "name": "STARLINK-35810", "group": "last-30-days", "lat": 36.12733848354581, "lon": -179.33649356177278, "alt_km": 410.30650558635534, "timestamp": "2025-12-11T08:58:25.854732+00:00", "meta": {"OBJECT_NAME": "STARLINK-35810", "OBJECT_ID": "2025-268U", "EPOCH": "2025-12-11T04:00:01.998720", "MEAN_MOTION": 15.50600138, "ECCENTRICITY": 0.0001722, "INCLINATION": 43.0004, "RA_OF_ASC_NODE": 130.3105, "ARG_OF_PERICENTER": 270.2936, "MEAN_ANOMALY": 71.4861, "EPHEMERIS_TYPE": 0, "CLASSIFICATION_TYPE": "U", "NORAD_CAT_ID": 66575, "ELEMENT_SET_NO": 999, "REV_AT_EPOCH": 441, "BSTAR": -0.0014135, "MEAN_MOTION_DOT": -0.00082464, "MEAN_MOTION_DDOT": 0}, "tle": {"line1": "1 66575U 25268U   25345.16668980 -.00082464  00000+0 -14135-2 0  9996", "line2": "2 66575  43.0004 130.3105 0001722 270.2936  71.4861 15.50600138  4411"}}, "geometry": {"type": "Point", "coordinates": [-179.33649356177278, 36.12733848354581]}}, {"type": "Feature", "properties": {"norad_id": 66576, "name": "STARLINK-35814", "group": "last-30-days", "lat": 36.91862943155027, "lon": -177.1735908718498, "alt_km": 410.2813185262885, "timestamp": "2025-12-11T08:58:25.854742+00:00", "meta": {"OBJECT_NAME": "STARLINK-35814", "OBJECT_ID": "2025-268V", "EPOCH": "2025-12-11T04:00:01.998720", "MEAN_MOTION": 15.50599612, "ECCENTRICITY": 0.000178, "INCLINATION": 43.0004, "RA_OF_ASC_NODE": 130.3059, "ARG_OF_PERICENTER": 265.6492, "MEAN_ANOMALY": 78.0432, "EPHEMERIS_TYPE": 0, "CLASSIFICATION_TYPE": "U", "NORAD_CAT_ID": 66576, "ELEMENT_SET_NO": 999, "REV_AT_EPOCH": 441, "BSTAR": -0.0014029, "MEAN_MOTION_DOT": -0.0008185, "MEAN_MOTION_DDOT": 0}, "tle": {"line1": "1 66576U 25268V   25345.16668980 -.00081850  00000+0 -14029-2 0  9997", "line2": "2 66576  43.0004 130.3059 0001780 265.6492  78.0432 15.50599612  4410"}}, "geometry": {"type": "Point", "coordinates": [-177.1735908718498, 36.91862943155027]}}, {"type": "Feature", "properties": {"norad_id": 66577, "name": "STARLINK-35815", "group": "last-30-days", "lat": 37.691695921387144, "lon": -174.89941874272034, "alt_km": 410.0938655996497, "timestamp": "2025-12-11T08:58:25.854752+00:00", "meta": {"OBJECT_NAME": "STARLINK-35815", "OBJECT_ID": "2025-268W", "EPOCH": "2025-12-11T04:00:01.998720", "MEAN_MOTION": 15.50746462, "ECCENTRICITY": 0.0001741, "INCLINATION": 43.0005, "RA_OF_ASC_NODE": 130.3015, "ARG_OF_PERICENTER": 256.8535, "MEAN_ANOMALY": 88.7406, "EPHEMERIS_TYPE": 0, "CLASSIFICATION_TYPE": "U", "NORAD_CAT_ID": 66577, "ELEMENT_SET_NO": 999, "REV_AT_EPOCH": 441, "BSTAR": -0.0057863, "MEAN_MOTION_DOT": -0.00327942, "MEAN_MOTION_DDOT": 0}, "tle": {"line1": "1 66577U 25268W   25345.16668980 -.00327942  00000+0 -57863-2 0  9996", "line2": "2 66577  43.0005 130.3015 0001741 256.8535  88.7406 15.50746462  4417"}}, "geometry": {"type": "Point", "coordinates": [-174.89941874272034, 37.691695921387144]}}, {"type": "Feature", "properties": {"norad_id": 66578, "name": "STARLINK-35743", "group": "last-30-days", "lat": 38.38403041518713, "lon": -172.69825650507966, "alt_km": 409.96743691138454, "timestamp": "2025-12-11T08:58:25.854763+00:00", "meta": {"OBJECT_NAME": "STARLINK-35743", "OBJECT_ID": "2025-268X", "EPOCH": "2025-12-11T04:00:01.998720", "MEAN_MOTION": 15.50608206, "ECCENTRICITY": 0.0001617, "INCLINATION": 43.0004, "RA_OF_ASC_NODE": 130.2961, "ARG_OF_PERICENTER": 265.888, "MEAN_ANOMALY": 81.6379, "EPHEMERIS_TYPE": 0, "CLASSIFICATION_TYPE": "U", "NORAD_CAT_ID": 66578, "ELEMENT_SET_NO": 999, "REV_AT_EPOCH": 441, "BSTAR": -0.0016208, "MEAN_MOTION_DOT": -0.00094386, "MEAN_MOTION_DDOT": 0}, "tle": {"line1": "1 66578U 25268X   25345.16668980 -.00094386  00000+0 -16208-2 0  9998", "line2": "2 66578  43.0004 130.2961 0001617 265.8880  81.6379 15.50608206  4415"}}, "geometry": {"type": "Point", "coordinates": [-172.69825650507966, 38.38403041518713]}}]}